stk.v.4.3

BEGIN Ephemeris

NumberOfEphemerisPoints   1004

ScenarioEpoch           27 Apr 2018 23:11:30.836896
InterpolationMethod     Lagrange
InterpolationOrder      7
CentralBody             Earth
CoordinateSystem        J2000
DistanceUnit     Kilometers

EphemerisTimePosVel

19380.0 13933.54266737792 13272.64556925746 -18693.09769055124 -1.036728245566023 3.311299420098287 1.633527348800504 
19440.0 13867.00844628553 13479.58890946445 -18590.81952654948 -1.05494454189841 3.294008201964132 1.657450218604933 
19500.0 13799.33263989822 13685.4051269791 -18487.07670142546 -1.073074247113261 3.276448483345632 1.681242928009435 
19560.0 13730.52130668224 13890.07753131305 -18381.87804515874 -1.091115867644811 3.258621672262906 1.704903597777506 
19620.0 13660.58060065063 14093.58953778317 -18275.23250475769 -1.109067917231032 3.240529198149393 1.728430359131881 
19680.0 13589.5167707016 14295.92466888679 -18167.14914334604 -1.126928917035555 3.222172511736326 1.751821353901613 
19740.0 13517.33615994845 14497.06655566334 -18057.63713923976 -1.144697395768949 3.20355308493551 1.775074734668294 
19800.0 13444.04520504142 14696.99893904308 -17946.70578501456 -1.162371889809395 3.184672410720386 1.798188664911436 
19860.0 13369.65043548142 14895.70567118172 -17834.36448656411 -1.17995094332269 3.16553200300547 1.821161319152939 
19920.0 13294.15847292584 15093.17071678168 -17720.62276214919 -1.197433108381584 3.146133396524098 1.843990883100678 
19980.0 13217.57603048648 15289.3781543996 -17605.49024143773 -1.214816945084486 3.126478146704526 1.8666755537912 
20040.0 13139.90991201982 15484.31217773959 -17488.97666453626 -1.232101021673438 3.106567829544412 1.889213539731483 
20100.0 13061.16701140941 15677.95709693325 -17371.09188101224 -1.24928391465148 3.086404041483607 1.911603061039821 
20160.0 12981.35431184116 15870.29733980461 -17251.84584890841 -1.266364208899234 3.06598839927542 1.933842349585694 
20220.0 12900.47888507087 16061.31745312186 -17131.24863374827 -1.283340497790853 3.045322539856185 1.955929649128787 
20280.0 12818.54789068463 16251.0021038341 -17009.31040753353 -1.300211383309216 3.024408120213283 1.977863215456976 
20340.0 12735.56857535201 16439.33608029426 -16886.04144773342 -1.316975476160433 3.003246817251551 1.999641316523409 
20400.0 12651.54827207227 16626.30429346708 -16761.45213626609 -1.333631395887574 2.981840327658145 2.021262232582558 
20460.0 12566.49439941352 16811.89177812285 -16635.55295847223 -1.350177770983695 2.960190367765819 2.042724256325314 
20520.0 12480.4144607451 16996.08369401661 -16508.35450208085 -1.36661323900411 2.938298673414638 2.0640256930131 
20580.0 12393.31604346323 17178.86532705252 -16379.86745616772 -1.382936446677893 2.916166999812177 2.085164860610953 
20640.0 12305.20681821016 17360.2220904332 -16250.10261010657 -1.399146050018604 2.893797121392195 2.106140089919574 
20700.0 12216.09453808665 17540.13952579494 -16119.07085251274 -1.415240714434283 2.871190831671741 2.126949724706423 
20760.0 12125.98703785833 17718.60330432712 -15986.78317018021 -1.431219114836594 2.848349943106837 2.147592121835678 
20820.0 12034.89223315555 17895.59922787739 -15853.25064701126 -1.447079935749246 2.825276286946577 2.168065651397246 
20880.0 11942.81811966737 18071.11323004133 -15718.48446293985 -1.462821871415555 2.801971713085815 2.188368696834644 
20940.0 11849.77277232936 18245.13137723715 -15582.49589284802 -1.478443625905225 2.778438089916354 2.208499655071862 
21000.0 11755.76434450553 18417.63986976531 -15445.29630547605 -1.493943913220319 2.754677304176672 2.228456936639133 
21060.0 11660.8010671645 18588.62504285284 -15306.89716232617 -1.509321457400378 2.730691260800204 2.248238965797629 
21120.0 11564.89124805021 18758.07336768207 -15167.31001656048 -1.524574992626712 2.706481882762246 2.267844180663035 
21180.0 11468.0432708466 18925.9714524048 -15026.5465118922 -1.53970326332588 2.682051110925325 2.287271033328083 
21240.0 11370.26559433744 19092.30604314017 -14884.61838147175 -1.55470502427227 2.657400903883276 2.306517989983912 
21300.0 11271.56675156047 19257.06402495773 -14741.53744676678 -1.569579040689859 2.632533237803867 2.325583531040339 
21360.0 11171.95534895648 19420.23242284478 -14597.31561643666 -1.584324088353086 2.607450106270048 2.344466151245002 
21420.0 11071.44006551341 19581.79840265818 -14451.96488520171 -1.598938953686854 2.582153520119847 2.363164359801357 
21480.0 10970.02965190527 19741.74927206081 -14305.49733270703 -1.613422433865671 2.55664550728488 2.381676680485538 
21540.0 10867.7329296265 19900.07248144211 -14157.92512238129 -1.627773336911859 2.530928112627564 2.400001651762055 
21600.0 10764.55879012139 20056.75562482323 -14009.26050029064 -1.641990481792911 2.505003397776955 2.418137826898328 
21660.0 10660.51619390912 20211.78644074651 -13859.51579398768 -1.656072698517906 2.478873440963302 2.436083774078057 
21720.0 10555.61416970406 20365.15281314919 -13708.70341135585 -1.670018828233043 2.452540336851275 2.453838076513415 
21780.0 10449.86181353192 20516.84277222143 -13556.83583944924 -1.683827723316238 2.426006196371917 2.471399332556041 
21840.0 10343.26828784163 20666.84449524858 -13403.9256433282 -1.697498247470785 2.399273146553322 2.488766155806843 
21900.0 10235.84282061294 20815.14630743783 -13249.98546489053 -1.711029275818115 2.372343330350034 2.505937175224603 
21960.0 10127.59470446023 20961.7366827288 -13095.02802169877 -1.724419694989577 2.345218906471226 2.522911035233355 
22020.0 10018.53329573226 21106.60424458859 -12939.06610580346 -1.737668403217295 2.317902049207612 2.539686395828562 
22080.0 9908.668013608214 21249.73776679101 -12782.11258256266 -1.750774310424065 2.290394948257161 2.556261932682052 
22140.0 9798.008339189997 21391.12617417987 -12624.18038945775 -1.763736338312286 2.262699808549577 2.572636337245728 
22200.0 9686.563814591173 21530.75854341644 -12465.28253490598 -1.776553420451921 2.23481885006963 2.588808316854026 
22260.0 9574.344042022265 21668.62410371121 -12305.43209706944 -1.789224502367487 2.206754307679271 2.604776594825126 
22320.0 9461.358682872817 21804.7122375398 -12144.6422226608 -1.801748541624062 2.17850843093857 2.620539910560916 
22380.0 9347.61745679031 21939.01248134286 -11982.92612574622 -1.814124507912305 2.150083483925559 2.636097019645673 
22440.0 9233.130140755933 22071.51452621029 -11820.29708654523 -1.826351383132468 2.121481745054886 2.651446693943487 
22500.0 9117.906568157385 22202.20821854958 -11656.76845022772 -1.838428161477422 2.092705506895371 2.666587721694394 
22560.0 9001.956627858792 22331.08356073836 -11492.35362570846 -1.850353849514669 2.063757075986443 2.681518907609236 
22620.0 8885.29026326783 22458.13071176112 -11327.06608443888 -1.862127466267348 2.034638772653473 2.696239072963228 
22680.0 8767.917471400493 22583.33998783 -11160.91935919692 -1.873748043294188 2.005352930822078 2.710747055688202 
22740.0 8649.848301942968 22706.70186298984 -10993.92704287428 -1.885214624768474 1.975901897831313 2.725041710463565 
22800.0 8531.092856311188 22828.20696970771 -10826.10278726152 -1.896526267555973 1.946288034245792 2.73912190880596 
22860.0 8411.661286708295 22947.84609944619 -10657.46030183165 -1.907682041291793 1.916513713666849 2.752986539157566 
22920.0 8291.56379517972 23065.61020322117 -10488.01335252153 -1.918681028456224 1.886581322542634 2.766634506973101 
22980.0 8170.810632666128 23181.49039214404 -10317.77576051169 -1.929522324449528 1.85649325997718 2.780064734805492 
23040.0 8049.412098054629 23295.47793794782 -10146.76140100469 -1.940205037665653 1.826251937538539 2.793276162390189 
23100.0 7927.37853722779 23407.56427349799 -9974.984202001837 -1.950728289564915 1.79585977906588 2.806267746728162 
23160.0 7804.720342111204 23517.74099328733 -9802.458143078984 -1.961091214745581 1.765319220475675 2.819038462167515 
23220.0 7681.447949719254 23625.99985391527 -9629.197254160885 -1.971292961014402 1.734632709566933 2.831587300483771 
23280.0 7557.571841199271 23732.33277455178 -9455.21561429451 -1.981332689456061 1.703802705825458 2.843913270958783 
23340.0 7433.102540874337 23836.73183738539 -9280.527350421684 -1.991209574501538 1.672831680227245 2.856015400458274 
23400.0 7308.050615284859 23939.18928805589 -9105.146636150912 -2.000922803995376 1.641722115040975 2.867892733508008 
23460.0 7182.426672228743 24039.69753607141 -8929.08769052847 -2.010471579261865 1.610476503629598 2.879544332368572 
23520.0 7056.241359800262 24138.2491552103 -8752.364776808734 -2.019855115170146 1.579097350251012 2.890969277108815 
23580.0 6929.505365428574 24234.83688390702 -8574.992201224966 -2.029072640198147 1.547587169858029 2.902166665677814 
23640.0 6802.229414914418 24329.4536256234 -8396.984311758722 -2.038123396495501 1.51594848789731 2.913135613975541 
23700.0 6674.424271466735 24422.09244920392 -8218.35549690999 -2.047006639945264 1.484183840107633 2.923875255922062 
23760.0 6546.100734738213 24512.74658921597 -8039.120184466998 -2.055721640224571 1.452295772317301 2.934384743525344 
23820.0 6417.269639860137 24601.40944627491 -7859.292840275935 -2.06426768086415 1.420286840240715 2.94466324694768 
23880.0 6287.94185647701 24688.07458735384 -7678.887967011178 -2.072644059306707 1.388159609274241 2.954709954570669 
23940.0 6158.128287780538 24772.73574607813 -7497.920102945832 -2.08085008696418 1.355916654291291 2.964524073058783 
24000.0 6027.83986954329 24855.38682300507 -7316.40382072249 -2.088885089273859 1.323560559436636 2.974104827421516 
24060.0 5897.087569152213 24936.02188588828 -7134.353726124819 -2.096748405753369 1.291093917920024 2.983451461074097 
24120.0 5765.882384642008 25014.63516992721 -6951.784456849726 -2.104439390054494 1.258519331809081 2.992563235896776 
24180.0 5634.235343728396 25091.22107800166 -6768.71068128035 -2.111957410015869 1.225839411821501 3.001439432292661 
24240.0 5502.157502841401 25165.77418089149 -6585.147097259805 -2.11930184771451 1.193056777116548 3.01007934924413 
